[{"OBJECT_NAME":"STARLINK-4309","OBJECT_ID":"2022-077Z","EPOCH":"2026-03-09T22:35:14.201376","MEAN_MOTION":15.01267523,"ECCENTRICITY":0.00022004,"INCLINATION":97.6019,"RA_OF_ASC_NODE":250.462,"ARG_OF_PERICENTER":219.4226,"MEAN_ANOMALY":140.6839,"EPHEMERIS_TYPE":0,"CLASSIFICATION_TYPE":"U","NORAD_CAT_ID":53066,"ELEMENT_SET_NO":999,"REV_AT_EPOCH":20095,"BSTAR":0.00041084975,"MEAN_MOTION_DOT":5.224e-5,"MEAN_MOTION_DDOT":0},{"OBJECT_NAME":"THOR ABLESTAR DEB","OBJECT_ID":"1961-015FQ","EPOCH":"2026-03-09T11:46:19.148160","MEAN_MOTION":14.93919582,"ECCENTRICITY":0.00285609,"INCLINATION":66.0574,"RA_OF_ASC_NODE":102.4005,"ARG_OF_PERICENTER":353.0053,"MEAN_ANOMALY":7.0669,"EPHEMERIS_TYPE":0,"CLASSIFICATION_TYPE":"U","NORAD_CAT_ID":478,"ELEMENT_SET_NO":999,"REV_AT_EPOCH":36928,"BSTAR":0.0013681176,"MEAN_MOTION_DOT":0.00014607,"MEAN_MOTION_DDOT":0}]
